start=new Date('2021-12-20T00:00:00.000Z').valueOf();
sats=[{"SEMIMAJOR_AXIS":"6727.893","PERIAPSIS":"348.360","CLASSIFICATION_TYPE":"U","MEAN_MOTION_DDOT":"0.0000000000000","EPOCH":"2021-12-19T21:02:38.414400","REV_AT_EPOCH":"592","EPHEMERIS_TYPE":"0","RCS_SIZE":"LARGE","ECCENTRICITY":"0.00020780","OBJECT_ID":"2021-104BD","TIME_SYSTEM":"UTC","ARG_OF_PERICENTER":"11.9614","REF_FRAME":"TEME","NORAD_CAT_ID":"49459","OBJECT_TYPE":"PAYLOAD","APOAPSIS":"351.156","MEAN_ANOMALY":"348.1455","INCLINATION":"53.2179","LAUNCH_DATE":"2021-11-13","MEAN_ELEMENT_THEORY":"SGP4","OBJECT_NAME":"STARLINK-3141","PERIOD":"91.533","CENTER_NAME":"EARTH","GP_ID":"192043415","DECAY_DATE":null,"MEAN_MOTION_DOT":"0.00000907","MEAN_MOTION":"15.73200843","ELEMENT_SET_NO":"999","RA_OF_ASC_NODE":"313.1131","FILE":"3244825","COUNTRY_CODE":"US","BSTAR":"0.00001089000000","SITE":"AFETR","TLE_LINE1":"1 49459U 21104BD  21353.87683350  .00000907  00000-0  10890-4 0  9991","TLE_LINE2":"2 49459  53.2179 313.1131 0002078  11.9614 348.1455 15.73200843  5921"},{"REF_FRAME":"TEME","NORAD_CAT_ID":"49460","OBJECT_TYPE":"PAYLOAD","APOAPSIS":"351.369","MEAN_ANOMALY":"200.1272","LAUNCH_DATE":"2021-11-13","INCLINATION":"53.2188","MEAN_ELEMENT_THEORY":"SGP4","PERIAPSIS":"347.964","CLASSIFICATION_TYPE":"U","SEMIMAJOR_AXIS":"6727.802","EPOCH":"2021-12-19T22:00:00.999936","MEAN_MOTION_DDOT":"0.0000000000000","EPHEMERIS_TYPE":"0","REV_AT_EPOCH":"366","ECCENTRICITY":"0.00025310","ARG_OF_PERICENTER":"26.7209","TIME_SYSTEM":"UTC","OBJECT_ID":"2021-104BE","RCS_SIZE":"LARGE","COUNTRY_CODE":"US","BSTAR":"-0.00010531000000","SITE":"AFETR","TLE_LINE1":"1 49460U 21104BE  21353.91667824 -.00015398  00000-0 -10531-3 0  9999","TLE_LINE2":"2 49460  53.2188 312.9120 0002531  26.7209 200.1272 15.73232806  3663","CENTER_NAME":"EARTH","GP_ID":"192042403","OBJECT_NAME":"STARLINK-3140","PERIOD":"91.531","MEAN_MOTION_DOT":"-0.00015398","DECAY_DATE":null,"ELEMENT_SET_NO":"999","MEAN_MOTION":"15.73232806","RA_OF_ASC_NODE":"312.9120","FILE":"3244825"},{"COUNTRY_CODE":"US","BSTAR":"0.00022206000000","SITE":"AFETR","TLE_LINE1":"1 49724U 21115A   21353.88087472  .00008743  00000-0  22206-3 0  9991","TLE_LINE2":"2 49724  53.2163 237.4388 0001865  51.7555 308.3618 15.40475237  2763","CENTER_NAME":"EARTH","GP_ID":"192042231","PERIOD":"93.478","OBJECT_NAME":"STARLINK-3219","MEAN_MOTION_DOT":"0.00008743","DECAY_DATE":null,"ELEMENT_SET_NO":"999","MEAN_MOTION":"15.40475237","FILE":"3244825","RA_OF_ASC_NODE":"237.4388","NORAD_CAT_ID":"49724","REF_FRAME":"TEME","APOAPSIS":"445.980","OBJECT_TYPE":"PAYLOAD","MEAN_ANOMALY":"308.3618","LAUNCH_DATE":"2021-12-02","INCLINATION":"53.2163","MEAN_ELEMENT_THEORY":"SGP4","CLASSIFICATION_TYPE":"U","PERIAPSIS":"443.435","SEMIMAJOR_AXIS":"6822.843","EPOCH":"2021-12-19T21:08:27.575808","MEAN_MOTION_DDOT":"0.0000000000000","EPHEMERIS_TYPE":"0","REV_AT_EPOCH":"276","ECCENTRICITY":"0.00018650","OBJECT_ID":"2021-115A","TIME_SYSTEM":"UTC","ARG_OF_PERICENTER":"51.7555","RCS_SIZE":"LARGE"},{"DECAY_DATE":null,"MEAN_MOTION_DOT":"0.00005394","OBJECT_NAME":"STARLINK-3218","PERIOD":"93.478","GP_ID":"192042839","CENTER_NAME":"EARTH","RA_OF_ASC_NODE":"237.4395","FILE":"3244825","MEAN_MOTION":"15.40471443","ELEMENT_SET_NO":"999","SITE":"AFETR","COUNTRY_CODE":"US","BSTAR":"0.00014083000000","TLE_LINE2":"2 49725  53.2165 237.4395 0001367  60.6651 299.4491 15.40471443  2761","TLE_LINE1":"1 49725U 21115B   21353.88125063  .00005394  00000-0  14083-3 0  9994","MEAN_MOTION_DDOT":"0.0000000000000","EPOCH":"2021-12-19T21:09:00.054432","SEMIMAJOR_AXIS":"6822.854","CLASSIFICATION_TYPE":"U","PERIAPSIS":"443.786","RCS_SIZE":"LARGE","ECCENTRICITY":"0.00013670","TIME_SYSTEM":"UTC","OBJECT_ID":"2021-115B","ARG_OF_PERICENTER":"60.6651","REV_AT_EPOCH":"276","EPHEMERIS_TYPE":"0","OBJECT_TYPE":"PAYLOAD","APOAPSIS":"445.652","REF_FRAME":"TEME","NORAD_CAT_ID":"49725","MEAN_ELEMENT_THEORY":"SGP4","LAUNCH_DATE":"2021-12-02","INCLINATION":"53.2165","MEAN_ANOMALY":"299.4491"},{"SITE":"AFETR","BSTAR":"-0.01002500000000","COUNTRY_CODE":"US","TLE_LINE2":"2 49726  53.2155 237.5118 0001072  58.5222 301.5886 15.33813744  2767","TLE_LINE1":"1 49726U 21115C   21353.89267070 -.00319114  00000-0 -10025-1 0  9991","DECAY_DATE":null,"MEAN_MOTION_DOT":"-0.00319114","OBJECT_NAME":"STARLINK-3237","PERIOD":"93.884","GP_ID":"192043446","CENTER_NAME":"EARTH","RA_OF_ASC_NODE":"237.5118","FILE":"3244825","MEAN_MOTION":"15.33813744","ELEMENT_SET_NO":"999","OBJECT_TYPE":"PAYLOAD","APOAPSIS":"465.182","REF_FRAME":"TEME","NORAD_CAT_ID":"49726","LAUNCH_DATE":"2021-12-02","MEAN_ELEMENT_THEORY":"SGP4","INCLINATION":"53.2155","MEAN_ANOMALY":"301.5886","MEAN_MOTION_DDOT":"0.0000000000000","EPOCH":"2021-12-19T21:25:26.748480","SEMIMAJOR_AXIS":"6842.583","CLASSIFICATION_TYPE":"U","PERIAPSIS":"463.715","RCS_SIZE":"LARGE","OBJECT_ID":"2021-115C","ECCENTRICITY":"0.00010720","TIME_SYSTEM":"UTC","ARG_OF_PERICENTER":"58.5222","REV_AT_EPOCH":"276","EPHEMERIS_TYPE":"0"},{"TLE_LINE2":"2 49727  53.2163 237.5196 0001279  36.4015 323.7074 15.33587358  2761","TLE_LINE1":"1 49727U 21115D   21353.89378972 -.00315380  00000-0 -99739-2 0  9997","SITE":"AFETR","BSTAR":"-0.00997390000000","COUNTRY_CODE":"US","RA_OF_ASC_NODE":"237.5196","FILE":"3244825","ELEMENT_SET_NO":"999","MEAN_MOTION":"15.33587358","DECAY_DATE":null,"MEAN_MOTION_DOT":"-0.00315380","CENTER_NAME":"EARTH","GP_ID":"192042434","OBJECT_NAME":"STARLINK-3242","PERIOD":"93.897","MEAN_ELEMENT_THEORY":"SGP4","LAUNCH_DATE":"2021-12-02","INCLINATION":"53.2163","MEAN_ANOMALY":"323.7074","OBJECT_TYPE":"PAYLOAD","APOAPSIS":"465.997","REF_FRAME":"TEME","NORAD_CAT_ID":"49727","ARG_OF_PERICENTER":"36.4015","ECCENTRICITY":"0.00012790","OBJECT_ID":"2021-115D","TIME_SYSTEM":"UTC","RCS_SIZE":"LARGE","EPHEMERIS_TYPE":"0","REV_AT_EPOCH":"276","EPOCH":"2021-12-19T21:27:03.431808","MEAN_MOTION_DDOT":"0.0000000000000","PERIAPSIS":"464.246","CLASSIFICATION_TYPE":"U","SEMIMAJOR_AXIS":"6843.257"},{"FILE":"3244825","RA_OF_ASC_NODE":"237.5191","ELEMENT_SET_NO":"999","MEAN_MOTION":"15.33473604","DECAY_DATE":null,"MEAN_MOTION_DOT":"-0.00327945","CENTER_NAME":"EARTH","GP_ID":"192042637","PERIOD":"93.904","OBJECT_NAME":"STARLINK-3240","TLE_LINE2":"2 49728  53.2153 237.5191 0001569  43.5418 316.5709 15.33473604  2767","TLE_LINE1":"1 49728U 21115E   21353.89478012 -.00327945  00000-0 -10426-1 0  9999","SITE":"AFETR","COUNTRY_CODE":"US","BSTAR":"-0.01042600000000","OBJECT_ID":"2021-115E","ARG_OF_PERICENTER":"43.5418","ECCENTRICITY":"0.00015690","TIME_SYSTEM":"UTC","RCS_SIZE":"LARGE","EPHEMERIS_TYPE":"0","REV_AT_EPOCH":"276","EPOCH":"2021-12-19T21:28:29.002368","MEAN_MOTION_DDOT":"0.0000000000000","PERIAPSIS":"464.386","CLASSIFICATION_TYPE":"U","SEMIMAJOR_AXIS":"6843.595","LAUNCH_DATE":"2021-12-02","INCLINATION":"53.2153","MEAN_ELEMENT_THEORY":"SGP4","MEAN_ANOMALY":"316.5709","APOAPSIS":"466.534","OBJECT_TYPE":"PAYLOAD","NORAD_CAT_ID":"49728","REF_FRAME":"TEME"},{"DECAY_DATE":null,"MEAN_MOTION_DOT":"-0.00373863","PERIOD":"93.919","OBJECT_NAME":"STARLINK-3251","CENTER_NAME":"EARTH","GP_ID":"192043244","FILE":"3244825","RA_OF_ASC_NODE":"237.5161","MEAN_MOTION":"15.33240180","ELEMENT_SET_NO":"999","SITE":"AFETR","COUNTRY_CODE":"US","BSTAR":"-0.01204700000000","TLE_LINE2":"2 49729  53.2159 237.5161 0002211  33.6845 326.4298 15.33240180  2764","TLE_LINE1":"1 49729U 21115F   21353.89583301 -.00373863  00000-0 -12047-1 0  9999","MEAN_MOTION_DDOT":"0.0000000000000","EPOCH":"2021-12-19T21:29:59.972064","SEMIMAJOR_AXIS":"6844.290","CLASSIFICATION_TYPE":"U","PERIAPSIS":"464.641","RCS_SIZE":"LARGE","TIME_SYSTEM":"UTC","OBJECT_ID":"2021-115F","ECCENTRICITY":"0.00022110","ARG_OF_PERICENTER":"33.6845","REV_AT_EPOCH":"276","EPHEMERIS_TYPE":"0","APOAPSIS":"467.668","OBJECT_TYPE":"PAYLOAD","NORAD_CAT_ID":"49729","REF_FRAME":"TEME","MEAN_ELEMENT_THEORY":"SGP4","LAUNCH_DATE":"2021-12-02","INCLINATION":"53.2159","MEAN_ANOMALY":"326.4298"},{"EPOCH":"2021-12-19T21:33:02.314080","MEAN_MOTION_DDOT":"0.0000000000000","PERIAPSIS":"467.143","CLASSIFICATION_TYPE":"U","SEMIMAJOR_AXIS":"6846.350","OBJECT_ID":"2021-115G","TIME_SYSTEM":"UTC","ECCENTRICITY":"0.00015660","ARG_OF_PERICENTER":"28.3417","RCS_SIZE":"LARGE","EPHEMERIS_TYPE":"0","REV_AT_EPOCH":"276","APOAPSIS":"469.287","OBJECT_TYPE":"PAYLOAD","NORAD_CAT_ID":"49730","REF_FRAME":"TEME","LAUNCH_DATE":"2021-12-02","MEAN_ELEMENT_THEORY":"SGP4","INCLINATION":"53.2155","MEAN_ANOMALY":"331.7670","MEAN_MOTION_DOT":"-0.00194288","DECAY_DATE":null,"GP_ID":"192043042","CENTER_NAME":"EARTH","PERIOD":"93.961","OBJECT_NAME":"STARLINK-3249","FILE":"3244825","RA_OF_ASC_NODE":"237.5207","ELEMENT_SET_NO":"999","MEAN_MOTION":"15.32548184","SITE":"AFETR","BSTAR":"-0.00624430000000","COUNTRY_CODE":"US","TLE_LINE2":"2 49730  53.2155 237.5207 0001566  28.3417 331.7670 15.32548184  2768","TLE_LINE1":"1 49730U 21115G   21353.89794345 -.00194288  00000-0 -62443-2 0  9991"},{"APOAPSIS":"469.497","OBJECT_TYPE":"PAYLOAD","NORAD_CAT_ID":"49731","REF_FRAME":"TEME","MEAN_ELEMENT_THEORY":"SGP4","LAUNCH_DATE":"2021-12-02","INCLINATION":"53.2154","MEAN_ANOMALY":"354.2554","EPOCH":"2021-12-19T21:31:27.732000","MEAN_MOTION_DDOT":"0.0000000000000","CLASSIFICATION_TYPE":"U","PERIAPSIS":"464.963","SEMIMAJOR_AXIS":"6845.365","TIME_SYSTEM":"UTC","ECCENTRICITY":"0.00033120","OBJECT_ID":"2021-115H","ARG_OF_PERICENTER":"5.8487","RCS_SIZE":"LARGE","EPHEMERIS_TYPE":"0","REV_AT_EPOCH":"276","SITE":"AFETR","COUNTRY_CODE":"US","BSTAR":"-0.01055400000000","TLE_LINE2":"2 49731  53.2154 237.5191 0003312   5.8487 354.2554 15.32878833  2766","TLE_LINE1":"1 49731U 21115H   21353.89684875 -.00325960  00000-0 -10554-1 0  9996","DECAY_DATE":null,"MEAN_MOTION_DOT":"-0.00325960","CENTER_NAME":"EARTH","GP_ID":"192042030","PERIOD":"93.941","OBJECT_NAME":"STARLINK-3228","FILE":"3244825","RA_OF_ASC_NODE":"237.5191","ELEMENT_SET_NO":"999","MEAN_MOTION":"15.32878833"}];
